start=new Date('2021-11-09T00:00:00.000Z').valueOf();
sats=[{"OBJECT_TYPE":"PAYLOAD","DECAY_DATE":null,"MEAN_MOTION_DOT":"-0.00001143","FILE":"3209620","ECCENTRICITY":"0.00013660","SITE":"AFETR","BSTAR":"-0.00005788300000","CLASSIFICATION_TYPE":"U","MEAN_ANOMALY":"277.1519","TLE_LINE1":"1 46053U 20055AC  21312.91267187 -.00001143  00000-0 -57883-4 0  9996","LAUNCH_DATE":"2020-08-07","ELEMENT_SET_NO":"999","SEMIMAJOR_AXIS":"6925.396","REF_FRAME":"TEME","MEAN_MOTION":"15.06384640","REV_AT_EPOCH":"7062","ARG_OF_PERICENTER":"82.9626","MEAN_MOTION_DDOT":"0.0000000000000","CENTER_NAME":"EARTH","MEAN_ELEMENT_THEORY":"SGP4","GP_ID":"189301234","OBJECT_ID":"2020-055AC","RA_OF_ASC_NODE":"17.4925","RCS_SIZE":"LARGE","TLE_LINE2":"2 46053  53.0548  17.4925 0001366  82.9626 277.1519 15.06384640 70626","PERIOD":"95.593","OBJECT_NAME":"STARLINK-1543","APOAPSIS":"548.207","EPHEMERIS_TYPE":"0","INCLINATION":"53.0548","NORAD_CAT_ID":"46053","TIME_SYSTEM":"UTC","EPOCH":"2021-11-08T21:54:14.849568","COUNTRY_CODE":"US","PERIAPSIS":"546.315"},{"CLASSIFICATION_TYPE":"U","MEAN_ANOMALY":"286.8088","LAUNCH_DATE":"2020-08-07","TLE_LINE1":"1 46054U 20055AD  21312.92005585  .00012534  00000-0  85822-3 0  9997","ELEMENT_SET_NO":"999","OBJECT_TYPE":"PAYLOAD","DECAY_DATE":null,"FILE":"3209620","ECCENTRICITY":"0.00014420","MEAN_MOTION_DOT":"0.00012534","SITE":"AFETR","BSTAR":"0.00085822000000","RCS_SIZE":"LARGE","RA_OF_ASC_NODE":"17.4507","OBJECT_NAME":"STARLINK-1548","PERIOD":"95.590","TLE_LINE2":"2 46054  53.0547  17.4507 0001442  73.3059 286.8088 15.06426490 70629","INCLINATION":"53.0547","EPHEMERIS_TYPE":"0","APOAPSIS":"548.131","COUNTRY_CODE":"US","PERIAPSIS":"546.134","EPOCH":"2021-11-08T22:04:52.825440","TIME_SYSTEM":"UTC","NORAD_CAT_ID":"46054","SEMIMAJOR_AXIS":"6925.267","REF_FRAME":"TEME","MEAN_MOTION":"15.06426490","ARG_OF_PERICENTER":"73.3059","REV_AT_EPOCH":"7062","OBJECT_ID":"2020-055AD","GP_ID":"189301984","MEAN_ELEMENT_THEORY":"SGP4","CENTER_NAME":"EARTH","MEAN_MOTION_DDOT":"0.0000000000000"},{"PERIOD":"95.593","OBJECT_NAME":"STARLINK-1554","TLE_LINE2":"2 46055  53.0561  17.5328 0001695  79.2449 280.8730 15.06381661 70624","RCS_SIZE":"LARGE","RA_OF_ASC_NODE":"17.5328","COUNTRY_CODE":"US","PERIAPSIS":"546.096","EPOCH":"2021-11-08T21:43:40.867968","TIME_SYSTEM":"UTC","NORAD_CAT_ID":"46055","APOAPSIS":"548.444","EPHEMERIS_TYPE":"0","INCLINATION":"53.0561","REF_FRAME":"TEME","SEMIMAJOR_AXIS":"6925.405","OBJECT_ID":"2020-055AE","CENTER_NAME":"EARTH","MEAN_MOTION_DDOT":"0.0000000000000","MEAN_ELEMENT_THEORY":"SGP4","GP_ID":"189300732","REV_AT_EPOCH":"7062","ARG_OF_PERICENTER":"79.2449","MEAN_MOTION":"15.06381661","MEAN_ANOMALY":"280.8730","CLASSIFICATION_TYPE":"U","ELEMENT_SET_NO":"999","LAUNCH_DATE":"2020-08-07","TLE_LINE1":"1 46055U 20055AE  21312.90533412  .00011696  00000-0  80317-3 0  9993","DECAY_DATE":null,"OBJECT_TYPE":"PAYLOAD","BSTAR":"0.00080317000000","SITE":"AFETR","FILE":"3209620","ECCENTRICITY":"0.00016950","MEAN_MOTION_DOT":"0.00011696"},{"OBJECT_TYPE":"PAYLOAD","DECAY_DATE":null,"MEAN_MOTION_DOT":"0.00007798","FILE":"3209238","ECCENTRICITY":"0.00013600","SITE":"AFETR","BSTAR":"0.00054189000000","CLASSIFICATION_TYPE":"U","MEAN_ANOMALY":"290.4426","TLE_LINE1":"1 46056U 20055AF  21312.46299008  .00007798  00000-0  54189-3 0  9991","LAUNCH_DATE":"2020-08-07","ELEMENT_SET_NO":"999","SEMIMAJOR_AXIS":"6925.361","REF_FRAME":"TEME","MEAN_MOTION":"15.06395920","ARG_OF_PERICENTER":"69.6709","REV_AT_EPOCH":"7056","MEAN_ELEMENT_THEORY":"SGP4","GP_ID":"189270497","CENTER_NAME":"EARTH","MEAN_MOTION_DDOT":"0.0000000000000","OBJECT_ID":"2020-055AF","RA_OF_ASC_NODE":"19.5094","RCS_SIZE":"LARGE","TLE_LINE2":"2 46056  53.0549  19.5094 0001360  69.6709 290.4426 15.06395920 70569","OBJECT_NAME":"STARLINK-1561","PERIOD":"95.592","EPHEMERIS_TYPE":"0","INCLINATION":"53.0549","APOAPSIS":"548.168","TIME_SYSTEM":"UTC","EPOCH":"2021-11-08T11:06:42.342912","NORAD_CAT_ID":"46056","COUNTRY_CODE":"US","PERIAPSIS":"546.284"},{"OBJECT_ID":"2020-055AH","MEAN_MOTION_DDOT":"0.0000000000000","CENTER_NAME":"EARTH","MEAN_ELEMENT_THEORY":"SGP4","GP_ID":"189268746","REV_AT_EPOCH":"7055","ARG_OF_PERICENTER":"76.5649","MEAN_MOTION":"15.06399683","REF_FRAME":"TEME","SEMIMAJOR_AXIS":"6925.350","COUNTRY_CODE":"US","PERIAPSIS":"546.266","NORAD_CAT_ID":"46058","EPOCH":"2021-11-08T11:22:39.442368","TIME_SYSTEM":"UTC","APOAPSIS":"548.163","INCLINATION":"53.0548","EPHEMERIS_TYPE":"0","PERIOD":"95.592","OBJECT_NAME":"STARLINK-1564","TLE_LINE2":"2 46058  53.0548  19.4517 0001369  76.5649 283.5492 15.06399683 70553","RCS_SIZE":"LARGE","RA_OF_ASC_NODE":"19.4517","BSTAR":"0.00096040000000","SITE":"AFETR","ECCENTRICITY":"0.00013690","FILE":"3209238","MEAN_MOTION_DOT":"0.00014052","DECAY_DATE":null,"OBJECT_TYPE":"PAYLOAD","ELEMENT_SET_NO":"999","LAUNCH_DATE":"2020-08-07","TLE_LINE1":"1 46058U 20055AH  21312.47406762  .00014052  00000-0  96040-3 0  9994","MEAN_ANOMALY":"283.5492","CLASSIFICATION_TYPE":"U"},{"BSTAR":"0.00048008000000","SITE":"AFETR","FILE":"3209620","ECCENTRICITY":"0.00013320","MEAN_MOTION_DOT":"0.00006875","DECAY_DATE":null,"OBJECT_TYPE":"PAYLOAD","ELEMENT_SET_NO":"999","LAUNCH_DATE":"2020-08-07","TLE_LINE1":"1 46059U 20055AJ  21312.87952776  .00006875  00000-0  48008-3 0  9995","MEAN_ANOMALY":"288.3313","CLASSIFICATION_TYPE":"U","OBJECT_ID":"2020-055AJ","MEAN_MOTION_DDOT":"0.0000000000000","CENTER_NAME":"EARTH","GP_ID":"189301485","MEAN_ELEMENT_THEORY":"SGP4","MEAN_MOTION":"15.06394691","REV_AT_EPOCH":"7057","ARG_OF_PERICENTER":"71.7821","REF_FRAME":"TEME","SEMIMAJOR_AXIS":"6925.365","PERIAPSIS":"546.307","COUNTRY_CODE":"US","NORAD_CAT_ID":"46059","TIME_SYSTEM":"UTC","EPOCH":"2021-11-08T21:06:31.198464","APOAPSIS":"548.152","INCLINATION":"53.0538","EPHEMERIS_TYPE":"0","PERIOD":"95.592","OBJECT_NAME":"STARLINK-1570","TLE_LINE2":"2 46059  53.0538  17.6431 0001332  71.7821 288.3313 15.06394691 70578","RCS_SIZE":"LARGE","RA_OF_ASC_NODE":"17.6431"},{"MEAN_MOTION_DDOT":"0.0000000000000","CENTER_NAME":"EARTH","MEAN_ELEMENT_THEORY":"SGP4","GP_ID":"189300233","OBJECT_ID":"2020-055AK","ARG_OF_PERICENTER":"68.5868","MEAN_MOTION":"15.06423363","REV_AT_EPOCH":"7058","REF_FRAME":"TEME","SEMIMAJOR_AXIS":"6925.277","EPOCH":"2021-11-08T21:01:11.483040","NORAD_CAT_ID":"46060","TIME_SYSTEM":"UTC","PERIAPSIS":"546.163","COUNTRY_CODE":"US","APOAPSIS":"548.121","INCLINATION":"53.0551","EPHEMERIS_TYPE":"0","TLE_LINE2":"2 46060  53.0551  17.6547 0001414  68.5868 291.5272 15.06423363 70589","PERIOD":"95.591","OBJECT_NAME":"STARLINK-1572","RA_OF_ASC_NODE":"17.6547","RCS_SIZE":"LARGE","BSTAR":"0.00106830000000","SITE":"AFETR","MEAN_MOTION_DOT":"0.00015677","FILE":"3209620","ECCENTRICITY":"0.00014140","DECAY_DATE":null,"OBJECT_TYPE":"PAYLOAD","ELEMENT_SET_NO":"999","TLE_LINE1":"1 46060U 20055AK  21312.87582735  .00015677  00000-0  10683-2 0  9998","LAUNCH_DATE":"2020-08-07","MEAN_ANOMALY":"291.5272","CLASSIFICATION_TYPE":"U"},{"TIME_SYSTEM":"UTC","EPOCH":"2021-11-08T11:17:21.267456","NORAD_CAT_ID":"46061","PERIAPSIS":"546.172","COUNTRY_CODE":"US","APOAPSIS":"548.294","INCLINATION":"53.0549","EPHEMERIS_TYPE":"0","TLE_LINE2":"2 46061  53.0549  19.4643 0001532  77.7725 282.3436 15.06393505 70550","PERIOD":"95.593","OBJECT_NAME":"STARLINK-1573","RA_OF_ASC_NODE":"19.4643","RCS_SIZE":"LARGE","CENTER_NAME":"EARTH","MEAN_MOTION_DDOT":"0.0000000000000","GP_ID":"189269998","MEAN_ELEMENT_THEORY":"SGP4","OBJECT_ID":"2020-055AL","MEAN_MOTION":"15.06393505","ARG_OF_PERICENTER":"77.7725","REV_AT_EPOCH":"7055","REF_FRAME":"TEME","SEMIMAJOR_AXIS":"6925.368","ELEMENT_SET_NO":"999","TLE_LINE1":"1 46061U 20055AL  21312.47038504  .00014089  00000-0  96302-3 0  9994","LAUNCH_DATE":"2020-08-07","MEAN_ANOMALY":"282.3436","CLASSIFICATION_TYPE":"U","BSTAR":"0.00096302000000","SITE":"AFETR","MEAN_MOTION_DOT":"0.00014089","ECCENTRICITY":"0.00015320","FILE":"3209238","DECAY_DATE":null,"OBJECT_TYPE":"PAYLOAD"},{"ECCENTRICITY":"0.00014090","FILE":"3209620","MEAN_MOTION_DOT":"0.00025172","BSTAR":"0.00170130000000","SITE":"AFETR","OBJECT_TYPE":"PAYLOAD","DECAY_DATE":null,"LAUNCH_DATE":"2020-08-07","TLE_LINE1":"1 46062U 20055AM  21312.90162790  .00025172  00000-0  17013-2 0  9994","ELEMENT_SET_NO":"999","CLASSIFICATION_TYPE":"U","MEAN_ANOMALY":"283.6834","REV_AT_EPOCH":"7058","MEAN_MOTION":"15.06431594","ARG_OF_PERICENTER":"76.4312","OBJECT_ID":"2020-055AM","CENTER_NAME":"EARTH","MEAN_MOTION_DDOT":"0.0000000000000","MEAN_ELEMENT_THEORY":"SGP4","GP_ID":"189301235","SEMIMAJOR_AXIS":"6925.252","REF_FRAME":"TEME","APOAPSIS":"548.092","INCLINATION":"53.0548","EPHEMERIS_TYPE":"0","COUNTRY_CODE":"US","PERIAPSIS":"546.141","NORAD_CAT_ID":"46062","TIME_SYSTEM":"UTC","EPOCH":"2021-11-08T21:38:20.650560","RCS_SIZE":"LARGE","RA_OF_ASC_NODE":"17.5492","PERIOD":"95.590","OBJECT_NAME":"STARLINK-1574","TLE_LINE2":"2 46062  53.0548  17.5492 0001409  76.4312 283.6834 15.06431594 70582"},{"LAUNCH_DATE":"2020-08-07","TLE_LINE1":"1 46063U 20055AN  21312.89795427  .00008977  00000-0  62079-3 0  9999","ELEMENT_SET_NO":"999","CLASSIFICATION_TYPE":"U","MEAN_ANOMALY":"287.8605","FILE":"3209620","ECCENTRICITY":"0.00015130","MEAN_MOTION_DOT":"0.00008977","BSTAR":"0.00062079000000","SITE":"AFETR","OBJECT_TYPE":"PAYLOAD","DECAY_DATE":null,"EPHEMERIS_TYPE":"0","INCLINATION":"53.0548","APOAPSIS":"548.263","COUNTRY_CODE":"US","PERIAPSIS":"546.167","NORAD_CAT_ID":"46063","TIME_SYSTEM":"UTC","EPOCH":"2021-11-08T21:33:03.248928","RCS_SIZE":"LARGE","RA_OF_ASC_NODE":"17.5613","OBJECT_NAME":"STARLINK-1577","PERIOD":"95.592","TLE_LINE2":"2 46063  53.0548  17.5613 0001513  72.2549 287.8605 15.06399556 70617","REV_AT_EPOCH":"7061","ARG_OF_PERICENTER":"72.2549","MEAN_MOTION":"15.06399556","OBJECT_ID":"2020-055AN","GP_ID":"189301985","MEAN_ELEMENT_THEORY":"SGP4","MEAN_MOTION_DDOT":"0.0000000000000","CENTER_NAME":"EARTH","SEMIMAJOR_AXIS":"6925.350","REF_FRAME":"TEME"}];
